start=new Date('2022-11-10T00:00:00.000Z').valueOf();
sats=[{"RA_OF_ASC_NODE":"179.6815","CENTER_NAME":"EARTH","GP_ID":"217273163","CLASSIFICATION_TYPE":"U","ELEMENT_SET_NO":"999","MEAN_MOTION_DDOT":"0.0000000000000","ARG_OF_PERICENTER":"40.1167","APOAPSIS":"548.846","REV_AT_EPOCH":"8045","OBJECT_NAME":"STARLINK-2657","FILE":"3650001","PERIAPSIS":"545.745","MEAN_ELEMENT_THEORY":"SGP4","NORAD_CAT_ID":"48655","MEAN_ANOMALY":"319.9987","EPHEMERIS_TYPE":"0","TIME_SYSTEM":"UTC","ECCENTRICITY":"0.00022390","SITE":"AFETR","PERIOD":"95.594","OBJECT_ID":"2021-044T","TLE_LINE2":"2 48655  53.0541 179.6815 0002239  40.1167 319.9987 15.06373155 80459","MEAN_MOTION_DOT":"-0.00015626","TLE_LINE1":"1 48655U 21044T   22313.86515264 -.00015626  00000-0 -10331-2 0  9999","DECAY_DATE":null,"INCLINATION":"53.0541","REF_FRAME":"TEME","LAUNCH_DATE":"2021-05-26","MEAN_MOTION":"15.06373155","BSTAR":"-0.00103310000000","OBJECT_TYPE":"PAYLOAD","COUNTRY_CODE":"US","SEMIMAJOR_AXIS":"6925.431","RCS_SIZE":"LARGE","EPOCH":"2022-11-09T20:45:49.188096"},{"OBJECT_NAME":"STARLINK-2701","FILE":"3650001","PERIAPSIS":"546.335","REV_AT_EPOCH":"8046","APOAPSIS":"548.231","ARG_OF_PERICENTER":"54.7713","MEAN_MOTION_DDOT":"0.0000000000000","ELEMENT_SET_NO":"999","CLASSIFICATION_TYPE":"U","GP_ID":"217273413","CENTER_NAME":"EARTH","RA_OF_ASC_NODE":"179.3979","EPOCH":"2022-11-09T22:16:03.426816","SEMIMAJOR_AXIS":"6925.418","RCS_SIZE":"LARGE","COUNTRY_CODE":"US","OBJECT_TYPE":"PAYLOAD","LAUNCH_DATE":"2021-05-26","BSTAR":"-0.00006759300000","MEAN_MOTION":"15.06377405","TLE_LINE2":"2 48656  53.0535 179.3979 0001369  54.7713 305.3404 15.06377405 80468","DECAY_DATE":null,"TLE_LINE1":"1 48656U 21044U   22313.92781744 -.00001287  00000-0 -67593-4 0  9997","INCLINATION":"53.0535","MEAN_MOTION_DOT":"-0.00001287","REF_FRAME":"TEME","OBJECT_ID":"2021-044U","PERIOD":"95.594","SITE":"AFETR","ECCENTRICITY":"0.00013690","TIME_SYSTEM":"UTC","NORAD_CAT_ID":"48656","MEAN_ANOMALY":"305.3404","EPHEMERIS_TYPE":"0","MEAN_ELEMENT_THEORY":"SGP4"},{"ARG_OF_PERICENTER":"66.9274","MEAN_MOTION_DDOT":"0.0000000000000","PERIAPSIS":"546.280","FILE":"3650001","OBJECT_NAME":"STARLINK-2734","REV_AT_EPOCH":"8045","APOAPSIS":"548.167","GP_ID":"217273663","RA_OF_ASC_NODE":"179.7008","CENTER_NAME":"EARTH","ELEMENT_SET_NO":"999","CLASSIFICATION_TYPE":"U","MEAN_MOTION":"15.06396735","LAUNCH_DATE":"2021-05-26","BSTAR":"-0.00034114000000","EPOCH":"2022-11-09T20:35:12.547104","SEMIMAJOR_AXIS":"6925.359","RCS_SIZE":"LARGE","COUNTRY_CODE":"US","OBJECT_TYPE":"PAYLOAD","TIME_SYSTEM":"UTC","NORAD_CAT_ID":"48657","MEAN_ANOMALY":"293.1859","EPHEMERIS_TYPE":"0","MEAN_ELEMENT_THEORY":"SGP4","TLE_LINE2":"2 48657  53.0530 179.7008 0001363  66.9274 293.1859 15.06396735 80456","MEAN_MOTION_DOT":"-0.00005359","TLE_LINE1":"1 48657U 21044V   22313.85778411 -.00005359  00000-0 -34114-3 0  9993","DECAY_DATE":null,"REF_FRAME":"TEME","INCLINATION":"53.0530","OBJECT_ID":"2021-044V","SITE":"AFETR","PERIOD":"95.592","ECCENTRICITY":"0.00013630"},{"CLASSIFICATION_TYPE":"U","ELEMENT_SET_NO":"999","CENTER_NAME":"EARTH","RA_OF_ASC_NODE":"179.4233","GP_ID":"217273915","APOAPSIS":"548.209","REV_AT_EPOCH":"8046","FILE":"3650001","PERIAPSIS":"546.250","OBJECT_NAME":"STARLINK-2647","MEAN_MOTION_DDOT":"0.0000000000000","ARG_OF_PERICENTER":"64.1767","ECCENTRICITY":"0.00014140","PERIOD":"95.592","SITE":"AFETR","OBJECT_ID":"2021-044W","TLE_LINE2":"2 48658  53.0559 179.4233 0001414  64.1767 295.9368 15.06394774 80466","MEAN_MOTION_DOT":"-0.00002597","TLE_LINE1":"1 48658U 21044W   22313.92045274 -.00002597  00000-0 -15555-3 0  9995","DECAY_DATE":null,"INCLINATION":"53.0559","REF_FRAME":"TEME","MEAN_ELEMENT_THEORY":"SGP4","NORAD_CAT_ID":"48658","MEAN_ANOMALY":"295.9368","EPHEMERIS_TYPE":"0","TIME_SYSTEM":"UTC","OBJECT_TYPE":"PAYLOAD","COUNTRY_CODE":"US","SEMIMAJOR_AXIS":"6925.365","RCS_SIZE":"LARGE","EPOCH":"2022-11-09T22:05:27.116736","LAUNCH_DATE":"2021-05-26","BSTAR":"-0.00015555000000","MEAN_MOTION":"15.06394774"},{"CENTER_NAME":"EARTH","RA_OF_ASC_NODE":"179.4448","GP_ID":"217272663","CLASSIFICATION_TYPE":"U","ELEMENT_SET_NO":"999","MEAN_MOTION_DDOT":"0.0000000000000","ARG_OF_PERICENTER":"62.3462","APOAPSIS":"548.412","REV_AT_EPOCH":"8046","OBJECT_NAME":"STARLINK-2717","FILE":"3650001","PERIAPSIS":"546.168","MEAN_ELEMENT_THEORY":"SGP4","NORAD_CAT_ID":"48659","MEAN_ANOMALY":"297.7692","EPHEMERIS_TYPE":"0","TIME_SYSTEM":"UTC","ECCENTRICITY":"0.00016200","SITE":"AFETR","PERIOD":"95.594","OBJECT_ID":"2021-044X","TLE_LINE2":"2 48659  53.0530 179.4448 0001620  62.3462 297.7692 15.06375099 80464","TLE_LINE1":"1 48659U 21044X   22313.91676800 -.00007155  00000-0 -46225-3 0  9993","MEAN_MOTION_DOT":"-0.00007155","DECAY_DATE":null,"INCLINATION":"53.0530","REF_FRAME":"TEME","LAUNCH_DATE":"2021-05-26","BSTAR":"-0.00046225000000","MEAN_MOTION":"15.06375099","OBJECT_TYPE":"PAYLOAD","COUNTRY_CODE":"US","SEMIMAJOR_AXIS":"6925.425","RCS_SIZE":"LARGE","EPOCH":"2022-11-09T22:00:08.755200"},{"SEMIMAJOR_AXIS":"6925.421","RCS_SIZE":"LARGE","EPOCH":"2022-11-09T21:54:49.576320","OBJECT_TYPE":"PAYLOAD","COUNTRY_CODE":"US","LAUNCH_DATE":"2021-05-26","MEAN_MOTION":"15.06376429","BSTAR":"-0.00065282000000","OBJECT_ID":"2021-044Y","TLE_LINE2":"2 48660  53.0548 179.4590 0001822 105.6848 254.4342 15.06376429 80466","TLE_LINE1":"1 48660U 21044Y   22313.91307380 -.00009986  00000-0 -65282-3 0  9997","DECAY_DATE":null,"INCLINATION":"53.0548","MEAN_MOTION_DOT":"-0.00009986","REF_FRAME":"TEME","ECCENTRICITY":"0.00018220","SITE":"AFETR","PERIOD":"95.594","TIME_SYSTEM":"UTC","MEAN_ELEMENT_THEORY":"SGP4","NORAD_CAT_ID":"48660","MEAN_ANOMALY":"254.4342","EPHEMERIS_TYPE":"0","OBJECT_NAME":"STARLINK-2688","FILE":"3650001","PERIAPSIS":"546.024","APOAPSIS":"548.548","REV_AT_EPOCH":"8046","MEAN_MOTION_DDOT":"0.0000000000000","ARG_OF_PERICENTER":"105.6848","ELEMENT_SET_NO":"999","CLASSIFICATION_TYPE":"U","GP_ID":"217272913","CENTER_NAME":"EARTH","RA_OF_ASC_NODE":"179.4590"},{"ELEMENT_SET_NO":"999","CLASSIFICATION_TYPE":"U","GP_ID":"217274164","CENTER_NAME":"EARTH","RA_OF_ASC_NODE":"169.7344","FILE":"3650001","PERIAPSIS":"546.314","OBJECT_NAME":"STARLINK-2708","APOAPSIS":"548.164","REV_AT_EPOCH":"8059","MEAN_MOTION_DDOT":"0.0000000000000","ARG_OF_PERICENTER":"73.8334","OBJECT_ID":"2021-044Z","DECAY_DATE":null,"TLE_LINE1":"1 48661U 21044Z   22313.84764976 -.00005377  00000-0 -34241-3 0  9999","MEAN_MOTION_DOT":"-0.00005377","INCLINATION":"53.0527","REF_FRAME":"TEME","TLE_LINE2":"2 48661  53.0527 169.7344 0001336  73.8334 286.2802 15.06391619 80595","ECCENTRICITY":"0.00013360","PERIOD":"95.593","SITE":"AFETR","TIME_SYSTEM":"UTC","MEAN_ELEMENT_THEORY":"SGP4","EPHEMERIS_TYPE":"0","MEAN_ANOMALY":"286.2802","NORAD_CAT_ID":"48661","RCS_SIZE":"LARGE","SEMIMAJOR_AXIS":"6925.374","EPOCH":"2022-11-09T20:20:36.939264","OBJECT_TYPE":"PAYLOAD","COUNTRY_CODE":"US","BSTAR":"-0.00034241000000","LAUNCH_DATE":"2021-05-26","MEAN_MOTION":"15.06391619"},{"EPOCH":"2022-11-09T21:50:50.729568","RCS_SIZE":"LARGE","SEMIMAJOR_AXIS":"6925.437","COUNTRY_CODE":"US","OBJECT_TYPE":"PAYLOAD","LAUNCH_DATE":"2021-05-26","MEAN_MOTION":"15.06371013","BSTAR":"-0.00057907000000","REF_FRAME":"TEME","TLE_LINE1":"1 48662U 21044AA  22313.91030937 -.00008889  00000-0 -57907-3 0  9996","DECAY_DATE":null,"MEAN_MOTION_DOT":"-0.00008889","INCLINATION":"53.0503","TLE_LINE2":"2 48662  53.0503 169.4737 0001116  68.6876 291.4232 15.06371013 80605","OBJECT_ID":"2021-044AA","SITE":"AFETR","PERIOD":"95.594","ECCENTRICITY":"0.00011160","TIME_SYSTEM":"UTC","EPHEMERIS_TYPE":"0","NORAD_CAT_ID":"48662","MEAN_ANOMALY":"291.4232","MEAN_ELEMENT_THEORY":"SGP4","FILE":"3650001","OBJECT_NAME":"STARLINK-2726","PERIAPSIS":"546.530","REV_AT_EPOCH":"8060","APOAPSIS":"548.075","ARG_OF_PERICENTER":"68.6876","MEAN_MOTION_DDOT":"0.0000000000000","ELEMENT_SET_NO":"999","CLASSIFICATION_TYPE":"U","GP_ID":"217274416","CENTER_NAME":"EARTH","RA_OF_ASC_NODE":"169.4737"},{"ECCENTRICITY":"0.00015400","PERIOD":"95.592","SITE":"AFETR","OBJECT_ID":"2021-044AB","TLE_LINE1":"1 48663U 21044AB  22313.90661072  .00002407  00000-0  18041-3 0  9990","DECAY_DATE":null,"REF_FRAME":"TEME","MEAN_MOTION_DOT":"0.00002407","INCLINATION":"53.0538","TLE_LINE2":"2 48663  53.0538 169.4877 0001540  84.9521 275.1643 15.06403462 80607","MEAN_ELEMENT_THEORY":"SGP4","EPHEMERIS_TYPE":"0","NORAD_CAT_ID":"48663","MEAN_ANOMALY":"275.1643","TIME_SYSTEM":"UTC","OBJECT_TYPE":"PAYLOAD","COUNTRY_CODE":"US","RCS_SIZE":"LARGE","SEMIMAJOR_AXIS":"6925.338","EPOCH":"2022-11-09T21:45:31.166208","LAUNCH_DATE":"2021-05-26","BSTAR":"0.00018041000000","MEAN_MOTION":"15.06403462","CLASSIFICATION_TYPE":"U","ELEMENT_SET_NO":"999","RA_OF_ASC_NODE":"169.4877","CENTER_NAME":"EARTH","GP_ID":"217273164","APOAPSIS":"548.269","REV_AT_EPOCH":"8060","FILE":"3650001","OBJECT_NAME":"STARLINK-2667","PERIAPSIS":"546.136","MEAN_MOTION_DDOT":"0.0000000000000","ARG_OF_PERICENTER":"84.9521"},{"ELEMENT_SET_NO":"999","CLASSIFICATION_TYPE":"U","GP_ID":"217273414","RA_OF_ASC_NODE":"169.5049","CENTER_NAME":"EARTH","PERIAPSIS":"546.055","FILE":"3650001","OBJECT_NAME":"STARLINK-2709","REV_AT_EPOCH":"8060","APOAPSIS":"548.464","ARG_OF_PERICENTER":"61.0859","MEAN_MOTION_DDOT":"0.0000000000000","TLE_LINE1":"1 48664U 21044AC  22313.90295345 -.00003176  00000-0 -19447-3 0  9994","MEAN_MOTION_DOT":"-0.00003176","DECAY_DATE":null,"REF_FRAME":"TEME","INCLINATION":"53.0540","TLE_LINE2":"2 48664  53.0540 169.5049 0001739  61.0859 299.0305 15.06384965 80609","OBJECT_ID":"2021-044AC","PERIOD":"95.593","SITE":"AFETR","ECCENTRICITY":"0.00017390","TIME_SYSTEM":"UTC","EPHEMERIS_TYPE":"0","NORAD_CAT_ID":"48664","MEAN_ANOMALY":"299.0305","MEAN_ELEMENT_THEORY":"SGP4","EPOCH":"2022-11-09T21:40:15.178080","RCS_SIZE":"LARGE","SEMIMAJOR_AXIS":"6925.395","COUNTRY_CODE":"US","OBJECT_TYPE":"PAYLOAD","MEAN_MOTION":"15.06384965","LAUNCH_DATE":"2021-05-26","BSTAR":"-0.00019447000000"}];
